{
    "links": {
        "self": "http://www.neowsapp.com/rest/v1/neo/3656917?api_key=iIulBulltgU6a56xZRHN4H3l9WmuAYTsLGpBGhQ2"
    },
    "id": "3656917",
    "neo_reference_id": "3656917",
    "name": "(2014 BE3)",
    "designation": "2014 BE3",
    "nasa_jpl_url": "http://ssd.jpl.nasa.gov/sbdb.cgi?sstr=3656917",
    "absolute_magnitude_h": 23.9,
    "estimated_diameter": {
        "kilometers": {
            "estimated_diameter_min": 0.04411182,
            "estimated_diameter_max": 0.0986370281
        },
        "meters": {
            "estimated_diameter_min": 44.1118199997,
            "estimated_diameter_max": 98.6370281305
        },
        "miles": {
            "estimated_diameter_min": 0.0274098057,
            "estimated_diameter_max": 0.0612901888
        },
        "feet": {
            "estimated_diameter_min": 144.7238235278,
            "estimated_diameter_max": 323.6123073718
        }
    },
    "is_potentially_hazardous_asteroid": false,
    "close_approach_data": [
        {
            "close_approach_date": "2014-01-26",
            "close_approach_date_full": "2014-Jan-26 03:20",
            "epoch_date_close_approach": 1390706400000,
            "relative_velocity": {
                "kilometers_per_second": "10.0424625137",
                "kilometers_per_hour": "36152.8650493747",
                "miles_per_hour": "22463.9843969295"
            },
            "miss_distance": {
                "astronomical": "0.0803420625",
                "lunar": "31.2530623125",
                "kilometers": "12019001.421406875",
                "miles": "7468261.175389875"
            },
            "orbiting_body": "Earth"
        }
    ],
    "orbital_data": {
        "orbit_id": "6",
        "orbit_determination_date": "2017-04-06 08:42:48",
        "first_observation_date": "2014-01-21",
        "last_observation_date": "2014-01-29",
        "data_arc_in_days": 8,
        "observations_used": 18,
        "orbit_uncertainty": "8",
        "minimum_orbit_intersection": ".0301687",
        "jupiter_tisserand_invariant": "3.922",
        "epoch_osculation": "2456679.5",
        "eccentricity": ".4367799417837383",
        "semi_major_axis": "1.793205365311749",
        "inclination": "14.97535917235538",
        "ascending_node_longitude": "115.7883016336426",
        "orbital_period": "877.0886101176193",
        "perihelion_distance": "1.009969230244596",
        "perihelion_argument": "9.792099920253618",
        "aphelion_distance": "2.576441500378902",
        "perihelion_time": "2456686.684481622844",
        "mean_anomaly": "357.0511378731996",
        "mean_motion": ".4104488370356597",
        "equinox": "J2000",
        "orbit_class": {
            "orbit_class_type": "APO",
            "orbit_class_description": "Near-Earth asteroid orbits which cross the Earth’s orbit similar to that of 1862 Apollo",
            "orbit_class_range": "a (semi-major axis) > 1.0 AU; q (perihelion) < 1.017 AU"
        }
    },
    "is_sentry_object": false
}